NOAA 15                 
1 25338U 98030A   23206.52837932  .00000247  00000+0  12089-3 0  9998
2 25338  98.6039 234.9262 0010017 195.4353 164.6524 14.26358552310479
DMSP 5D-3 F15 (USA 147) 
1 25991U 99067A   23206.57392775  .00000198  00000+0  12196-3 0  9994
2 25991  99.0704 210.5974 0010947 122.4964  41.5012 14.16765733220846
DMSP 5D-3 F16 (USA 172) 
1 28054U 03048A   23206.53050351  .00000075  00000+0  63698-4 0  9996
2 28054  99.0127 205.0741 0006174 257.5210 264.8777 14.13826383 19996
NOAA 18                 
1 28654U 05018A   23206.44665294  .00000220  00000+0  14200-3 0  9995
2 28654  98.9085 280.6505 0013156 271.3938  88.5727 14.12975195936886
METEOSAT-9 (MSG-2)      
1 28912U 05049B   23206.21471168  .00000137  00000+0  00000+0 0  9992
2 28912   6.9291  63.4804 0001967 187.3433 174.8772  1.00268728 64446
EWS-G1 (GOES 13)        
1 29155U 06018A   23206.57631125  .00000049  00000+0  00000+0 0  9991
2 29155   1.6171  91.3666 0003222  96.1675  24.6714  1.00267183 32775
DMSP 5D-3 F17 (USA 191) 
1 29522U 06050A   23206.50738392  .00000091  00000+0  70188-4 0  9998
2 29522  98.7529 218.7448 0009733 187.1898 172.9137 14.14266603862874
FENGYUN 3A              
1 32958U 08026A   23206.50258210  .00000145  00000+0  89882-4 0  9997
2 32958  98.5568 158.9762 0007715 303.4797  56.5641 14.18893211785376
FENGYUN 2E              
1 33463U 08066A   23206.58127965 -.00000196  00000+0  00000+0 0  9990
2 33463   6.8032  62.7241 0000135 270.4825 265.9488  1.00273204 53491
NOAA 19                 
1 33591U 09005A   23206.56683431  .00000205  00000+0  13502-3 0  9994
2 33591  99.0971 253.1024 0014718 132.4799 227.7619 14.12792043745105
GOES 14                 
1 35491U 09033A   23206.60089865 -.00000051  00000+0  00000+0 0  9997
2 35491   0.4218 102.2350 0005335 345.0596 323.4687  1.00272168 51501
DMSP 5D-3 F18 (USA 210) 
1 35951U 09057A   23206.56138096  .00000334  00000+0  19929-3 0  9997
2 35951  98.7693 182.1792 0011707  25.1659 335.0082 14.13807456710087
GOES 15                 
1 36411U 10008A   23206.54699119 -.00000095  00000+0  00000+0 0  9994
2 36411   0.4469  95.2548 0001594  76.5974 134.7384  0.99991058 49047
COMS 1                  
1 36744U 10032A   23206.51780238 -.00000331  00000+0  00000+0 0  9993
2 36744   2.0962  88.2988 0000972  28.3519 140.8598  1.00271807 40481
FENGYUN 3B              
1 37214U 10059A   23206.56183858  .00000083  00000+0  67626-4 0  9990
2 37214  99.0829 224.5787 0021260 299.4151 212.8237 14.14358566657896
SUOMI NPP               
1 37849U 11061A   23206.52511368  .00000115  00000+0  75346-4 0  9999
2 37849  98.7047 144.5927 0001407 102.5936  16.7792 14.19549406608388
FENGYUN 2F              
1 38049U 12002A   23206.58624803 -.00000346  00000+0  00000+0 0  9990
2 38049   4.7784  76.3284 0003002  77.6421 112.1895  1.00278568 42277
METEOSAT-10 (MSG-3)     
1 38552U 12035B   23206.27720887  .00000004  00000+0  00000+0 0  9990
2 38552   2.2488  56.5510 0000442  32.3176 313.2208  1.00274451 40246
METOP-B                 
1 38771U 12049A   23206.61789984  .00000139  00000+0  83375-4 0  9999
2 38771  98.6763 265.3462 0000902  97.7317  59.3823 14.21514402563019
FENGYUN 3C              
1 39260U 13052A   23206.54000955  .00000089  00000+0  65583-4 0  9999
2 39260  98.4279 218.6201 0010881 186.1145 173.9899 14.16056830508895
METEOR-M 2              
1 40069U 14037A   23206.51063012  .00000101  00000+0  65971-4 0  9998
2 40069  98.4237 210.7055 0004743 221.9496 138.1319 14.20796435469090
HIMAWARI-8              
1 40267U 14060A   23206.52015583 -.00000261  00000+0  00000+0 0  9990
2 40267   0.0270 290.1779 0000813 181.1169 159.5719  1.00271288 32151
FENGYUN 2G              
1 40367U 14090A   23206.58380742 -.00000290  00000+0  00000+0 0  9994
2 40367   2.9494  85.2597 0001512  75.8333  91.8043  1.00271338 31390
METEOSAT-11 (MSG-4)     
1 40732U 15034A   23206.27912649  .00000076  00000+0  00000+0 0  9993
2 40732   0.6565  47.9379 0001130   4.0578   0.6175  1.00264979 29400
ELEKTRO-L 2             
1 41105U 15074A   23206.41778043 -.00000104  00000+0  00000+0 0  9999
2 41105   4.0020  83.4018 0001729  99.6204 255.7466  1.00271759 27895
HIMAWARI-9              
1 41836U 16064A   23206.52015583 -.00000260  00000+0  00000+0 0  9998
2 41836   0.0187  74.0530 0001161  70.6583 126.2738  1.00272318 24590
GOES 16                 
1 41866U 16071A   23206.54899465 -.00000233  00000+0  00000+0 0  9990
2 41866   0.0474 241.8692 0000374 256.7940 286.7589  1.00272079 24493
FENGYUN 4A              
1 41882U 16077A   23206.58485340 -.00000316  00000+0  00000+0 0  9993
2 41882   0.0822  68.5849 0002423  77.8945 111.7297  1.00276921 24325
CYGFM05                 
1 41884U 16078A   23206.37349212  .00005737  00000+0  25605-3 0  9993
2 41884  34.9536 205.5282 0012682 109.1388 251.0699 15.20656291366059
CYGFM04                 
1 41885U 16078B   23206.33802079  .00006121  00000+0  26757-3 0  9992
2 41885  34.9474 192.5434 0011398 131.7957 228.3731 15.21357942366114
CYGFM02                 
1 41886U 16078C   23206.31916566  .00005563  00000+0  24348-3 0  9991
2 41886  34.9563 195.0099 0011877 124.2141 235.9700 15.21333698366193
CYGFM01                 
1 41887U 16078D   23206.36484775  .00005261  00000+0  23653-3 0  9992
2 41887  34.9504 208.6754 0013034 108.0496 252.1638 15.20423036365991
CYGFM08                 
1 41888U 16078E   23206.34464611  .00005677  00000+0  25081-3 0  9996
2 41888  34.9476 199.3791 0012321 124.0358 236.1526 15.21007929366146
CYGFM07                 
1 41890U 16078G   23206.34750414  .00006177  00000+0  26941-3 0  9990
2 41890  34.9502 192.1132 0010927 129.1108 231.0578 15.21439022366120
CYGFM03                 
1 41891U 16078H   23206.29766407  .00005711  00000+0  25054-3 0  9991
2 41891  34.9534 193.2489 0010405 126.4486 233.7187 15.21266423366109
FENGYUN 3D              
1 43010U 17072A   23206.55875654  .00000106  00000+0  72158-4 0  9996
2 43010  98.8630 155.2011 0001529 149.4945 210.6319 14.19185130294945
NOAA 20                 
1 43013U 17073A   23206.53677806  .00000081  00000+0  59086-4 0  9994
2 43013  98.7126 144.4039 0001344  65.1236 295.0080 14.19548110294414
GOES 17                 
1 43226U 18022A   23206.60264149 -.00000076  00000+0  00000+0 0  9997
2 43226   0.0313 211.8627 0002317 268.8150 294.5966  1.00272094 19811
FENGYUN 2H              
1 43491U 18050A   23206.57971069 -.00000114  00000+0  00000+0 0  9997
2 43491   2.1719  90.5680 0003030  75.8279  64.3442  1.00275004 18837
METOP-C                 
1 43689U 18087A   23206.55369592  .00000136  00000+0  81892-4 0  9992
2 43689  98.6808 265.4390 0001920 335.4077  24.7009 14.21510572244573
GEO-KOMPSAT-2A          
1 43823U 18100A   23206.30283532 -.00000330  00000+0  00000+0 0  9994
2 43823   0.0252 147.7201 0002344 313.3953  78.9076  1.00271333 17020
METEOR-M2 2             
1 44387U 19038A   23206.54146478  .00000052  00000+0  42342-4 0  9994
2 44387  98.7778 170.3728 0001544 140.4709 219.6582 14.23793918210767
FENGYUN 3E              
1 49008U 21062A   23206.56339020  .00000010  00000+0  25629-4 0  9991
2 49008  98.7224 207.4173 0000467 222.3698 137.7443 14.19688905106500
GOES 18                 
1 51850U 22021A   23206.61451524  .00000112  00000+0  00000+0 0  9999
2 51850   0.0064 221.1306 0000395 249.8581 276.2806  1.00271494  5172
NOAA 21 (JPSS-2)        
1 54234U 22150A   23206.55249352  .00000117  00000+0  75931-4 0  9993
2 54234  98.7166 143.9054 0001036  66.2249 293.9036 14.19565960 36492
METEOSAT-12             
1 54743U 22170C   23206.27668587 -.00000014  00000+0  00000+0 0  9991
2 54743   0.6422 312.0510 0002626 143.1319 303.9238  1.00275311  2379
METEOR-M2 3             
1 57166U 23091A   23206.58177269  .00000016  00000+0  26356-4 0  9990
2 57166  98.7626 258.3300 0004103  15.8067 344.3239 14.23835362  4000
